[{"OBJECT_NAME":"STARLINK-6073","OBJECT_ID":"2023-078AS","EPOCH":"2026-03-09T22:17:41.084736","MEAN_MOTION":14.99848742,"ECCENTRICITY":0.00116938,"INCLINATION":70.0028,"RA_OF_ASC_NODE":323.68,"ARG_OF_PERICENTER":295.6335,"MEAN_ANOMALY":64.3616,"EPHEMERIS_TYPE":0,"CLASSIFICATION_TYPE":"U","NORAD_CAT_ID":56807,"ELEMENT_SET_NO":999,"REV_AT_EPOCH":15321,"BSTAR":0.083955931,"MEAN_MOTION_DOT":0.01119436,"MEAN_MOTION_DDOT":0},{"OBJECT_NAME":"FLOCK 4H-17","OBJECT_ID":"2025-276BG","EPOCH":"2026-03-09T12:13:32.774304","MEAN_MOTION":15.19779499,"ECCENTRICITY":0.00021349,"INCLINATION":97.4298,"RA_OF_ASC_NODE":143.9091,"ARG_OF_PERICENTER":323.7123,"MEAN_ANOMALY":36.3967,"EPHEMERIS_TYPE":0,"CLASSIFICATION_TYPE":"U","NORAD_CAT_ID":66720,"ELEMENT_SET_NO":999,"REV_AT_EPOCH":1529,"BSTAR":0.00077231718,"MEAN_MOTION_DOT":0.00016485,"MEAN_MOTION_DDOT":0}]
